{
  "type": "Feature",
  "properties": {
    "status": "exploratory, manually reconstructed"
  },
  "geometry": {
    "type": "Polygon",
    "coordinates": [
      [
        [
          -73.996,
          40.7749
        ],
        [
          -73.956,
          40.7581
        ],
        [
          -73.962,
          40.75
        ],
        [
          -73.965,
          40.742
        ],
        [
          -73.9715,
          40.738
        ],
        [
          -73.9715,
          40.732
        ],
        [
          -73.9685,
          40.728
        ],
        [
          -73.971,
          40.72
        ],
        [
          -73.974,
          40.714
        ],
        [
          -73.979,
          40.7085
        ],
        [
          -73.99,
          40.705
        ],
        [
          -74.008,
          40.699
        ],
        [
          -74.019,
          40.699
        ],
        [
          -74.023,
          40.71
        ],
        [
          -74.016,
          40.726
        ],
        [
          -74.014,
          40.739
        ],
        [
          -74.011,
          40.749
        ],
        [
          -74.002,
          40.765
        ],
        [
          -73.996,
          40.7749
        ]
      ]
    ]
  }
}